IRIDIUM 921 [-]         
1 24873U 97034E   24069.70813474  .00023387  00000+0  73222-3 0  9993
2 24873  86.3884 337.1126 0000748 311.5838  48.5348 15.32986138459910
IRIDIUM 26 [-]          
1 24903U 97043A   24069.91438914  .00000473  00000+0  15553-3 0  9996
2 24903  86.3945 305.4429 0002066  91.9281 268.2152 14.36234867390086
IRIDIUM 22 [-]          
1 24907U 97043E   24069.40536949  .00000542  00000+0  18320-3 0  9993
2 24907  86.3957 308.8150 0002074  85.9868 274.1565 14.35130382390095
DUMMY MASS 1 [-]        
1 24925U 97048A   24069.27244187  .00000767  00000+0  84406-4 0  9991
2 24925  86.3400 350.1521 0007061  14.2528 345.8894 14.86085014436065
DUMMY MASS 2 [-]        
1 24926U 97048B   24069.49489998  .00000677  00000+0  74527-4 0  9990
2 24926  86.3401 351.5737 0008253  21.6903 338.4669 14.85843937435886
IRIDIUM 29 [-]          
1 24944U 97051A   24069.50944092  .00000542  00000+0  18126-3 0  9990
2 24944  86.4006 338.6999 0002090  78.6701 281.4730 14.35587866386584
IRIDIUM 33 [-]          
1 24946U 97051C   24069.93232271  .00000369  00000+0  12460-3 0  9990
2 24946  86.3920 337.7824 0008967 140.9003 219.2843 14.34280830386184
IRIDIUM 28 [-]          
1 24948U 97051E   24069.43993497  .00000618  00000+0  20376-3 0  9993
2 24948  86.4007 336.5126 0002242  96.2772 263.8680 14.36536926387100
